{"type": "FeatureCollection", "features": [ {"type": "Feature", "properties": {"norad_id": 35060, "name": "COSMOS 2251 DEB", "group": "cosmos-2251-debris", "lat": 32.434968443164536, "lon": -130.41444062281033, "alt_km": 751.3155562573475, "timestamp": "2025-12-26T08:37:54.975549+00:00", "meta": {"OBJECT_NAME": "COSMOS 2251 DEB", "OBJECT_ID": "1993-036AHP", "EPOCH": "2025-12-23T23:50:58.864704", "MEAN_MOTION": 14.416228, "ECCENTRICITY": 0.00187381, "INCLINATION": 74.0364, "RA_OF_ASC_NODE": 223.4863, "ARG_OF_PERICENTER": 306.8479, "MEAN_ANOMALY": 53.0958, "EPHEMERIS_TYPE": 0, "CLASSIFICATION_TYPE": "U", "NORAD_CAT_ID": 35060, "ELEMENT_SET_NO": 999, "REV_AT_EPOCH": 87404, "BSTAR": 0.0002601881, "MEAN_MOTION_DOT": 8.22e-06, "MEAN_MOTION_DDOT": 0}, "tle": {"line1": "1 35060U 93036AHP 25357.99373686  .00000822  00000+0  26019-3 0  9990", "line2": "2 35060  74.0364 223.4863 0018738 306.8479  53.0958 14.41622800874043"}}, "geometry": {"type": "Point", "coordinates": [-130.41444062281033, 32.434968443164536]}}, {"type": "Feature", "properties": {"norad_id": 35061, "name": "COSMOS 2251 DEB", "group": "cosmos-2251-debris", "lat": 51.78551755554289, "lon": 78.11573412638297, "alt_km": 666.5566921469044, "timestamp": "2025-12-26T08:37:54.975559+00:00", "meta": {"OBJECT_NAME": "COSMOS 2251 DEB", "OBJECT_ID": "1993-036AHQ", "EPOCH": "2025-12-25T12:26:22.141248", "MEAN_MOTION": 14.67934015, "ECCENTRICITY": 0.003974, "INCLINATION": 74.0461, "RA_OF_ASC_NODE": 281.0451, "ARG_OF_PERICENTER": 28.402, "MEAN_ANOMALY": 331.9304, "EPHEMERIS_TYPE": 0, "CLASSIFICATION_TYPE": "U", "NORAD_CAT_ID": 35061, "ELEMENT_SET_NO": 999, "REV_AT_EPOCH": 88762, "BSTAR": 0.00083709, "MEAN_MOTION_DOT": 4.819e-05, "MEAN_MOTION_DDOT": 0}, "tle": {"line1": "1 35061U 93036AHQ 25359.51831182  .00004819  00000+0  83709-3 0  9990", "line2": "2 35061  74.0461 281.0451 0039740  28.4020 331.9304 14.67934015887623"}}, "geometry": {"type": "Point", "coordinates": [78.11573412638297, 51.78551755554289]}}, {"type": "Feature", "properties": {"norad_id": 35062, "name": "COSMOS 2251 DEB", "group": "cosmos-2251-debris", "lat": 35.10723596097064, "lon": -122.75153026413537, "alt_km": 793.5672306652614, "timestamp": "2025-12-26T08:37:54.975569+00:00", "meta": {"OBJECT_NAME": "COSMOS 2251 DEB", "OBJECT_ID": "1993-036AHR", "EPOCH": "2025-12-25T04:58:43.946112", "MEAN_MOTION": 14.23029012, "ECCENTRICITY": 0.0126046, "INCLINATION": 74.0785, "RA_OF_ASC_NODE": 70.8899, "ARG_OF_PERICENTER": 66.8027, "MEAN_ANOMALY": 294.6336, "EPHEMERIS_TYPE": 0, "CLASSIFICATION_TYPE": "U", "NORAD_CAT_ID": 35062, "ELEMENT_SET_NO": 999, "REV_AT_EPOCH": 85676, "BSTAR": 0.0014843, "MEAN_MOTION_DOT": 3.607e-05, "MEAN_MOTION_DDOT": 0}, "tle": {"line1": "1 35062U 93036AHR 25359.20745308  .00003607  00000+0  14843-2 0  9997", "line2": "2 35062  74.0785  70.8899 0126046  66.8027 294.6336 14.23029012856767"}}, "geometry": {"type": "Point", "coordinates": [-122.75153026413537, 35.10723596097064]}}, {"type": "Feature", "properties": {"norad_id": 35065, "name": "COSMOS 2251 DEB", "group": "cosmos-2251-debris", "lat": -41.5207011303489, "lon": 3.6130782944811908, "alt_km": 740.4170718194382, "timestamp": "2025-12-26T08:37:54.975579+00:00", "meta": {"OBJECT_NAME": "COSMOS 2251 DEB", "OBJECT_ID": "1993-036AHU", "EPOCH": "2025-12-19T06:12:25.656192", "MEAN_MOTION": 14.4574331, "ECCENTRICITY": 0.0020018, "INCLINATION": 74.0185, "RA_OF_ASC_NODE": 182.1668, "ARG_OF_PERICENTER": 306.5523, "MEAN_ANOMALY": 53.3791, "EPHEMERIS_TYPE": 0, "CLASSIFICATION_TYPE": "U", "NORAD_CAT_ID": 35065, "ELEMENT_SET_NO": 999, "REV_AT_EPOCH": 68445, "BSTAR": 0.00028971, "MEAN_MOTION_DOT": 1.002e-05, "MEAN_MOTION_DDOT": 0}, "tle": {"line1": "1 35065U 93036AHU 25353.25863028  .00001002  00000+0  28971-3 0  9994", "line2": "2 35065  74.0185 182.1668 0020018 306.5523  53.3791 14.45743310684450"}}, "geometry": {"type": "Point", "coordinates": [3.6130782944811908, -41.5207011303489]}}, {"type": "Feature", "properties": {"norad_id": 35071, "name": "COSMOS 2251 DEB", "group": "cosmos-2251-debris", "lat": 34.95808017323209, "lon": 157.05027998715252, "alt_km": 505.31349056875024, "timestamp": "2025-12-26T08:37:54.975589+00:00", "meta": {"OBJECT_NAME": "COSMOS 2251 DEB", "OBJECT_ID": "1993-036AJA", "EPOCH": "2025-12-25T02:08:01.635648", "MEAN_MOTION": 15.03684095, "ECCENTRICITY": 0.00685428, "INCLINATION": 73.9325, "RA_OF_ASC_NODE": 148.0386, "ARG_OF_PERICENTER": 40.7776, "MEAN_ANOMALY": 319.8513, "EPHEMERIS_TYPE": 0, "CLASSIFICATION_TYPE": "U", "NORAD_CAT_ID": 35071, "ELEMENT_SET_NO": 999, "REV_AT_EPOCH": 67722, "BSTAR": 0.00076375103, "MEAN_MOTION_DOT": 0.00010995, "MEAN_MOTION_DDOT": 0}, "tle": {"line1": "1 35071U 93036AJA 25359.08890782  .00010995  00000+0  76375-3 0  9997", "line2": "2 35071  73.9325 148.0386 0068542  40.7776 319.8513 15.03684095677228"}}, "geometry": {"type": "Point", "coordinates": [157.05027998715252, 34.95808017323209]}}, {"type": "Feature", "properties": {"norad_id": 35073, "name": "COSMOS 2251 DEB", "group": "cosmos-2251-debris", "lat": 21.744923607157443, "lon": -50.638734342638244, "alt_km": 554.0994518318021, "timestamp": "2025-12-26T08:37:54.975600+00:00", "meta": {"OBJECT_NAME": "COSMOS 2251 DEB", "OBJECT_ID": "1993-036AJC", "EPOCH": "2025-12-23T13:22:12.377280", "MEAN_MOTION": 15.01382354, "ECCENTRICITY": 0.00112511, "INCLINATION": 74.0027, "RA_OF_ASC_NODE": 308.5087, "ARG_OF_PERICENTER": 50.3654, "MEAN_ANOMALY": 309.8525, "EPHEMERIS_TYPE": 0, "CLASSIFICATION_TYPE": "U", "NORAD_CAT_ID": 35073, "ELEMENT_SET_NO": 999, "REV_AT_EPOCH": 67641, "BSTAR": 0.0032564954, "MEAN_MOTION_DOT": 0.00042271, "MEAN_MOTION_DDOT": 0}, "tle": {"line1": "1 35073U 93036AJC 25357.55708770  .00042271  00000+0  32565-2 0  9998", "line2": "2 35073  74.0027 308.5087 0011251  50.3654 309.8525 15.01382354676412"}}, "geometry": {"type": "Point", "coordinates": [-50.638734342638244, 21.744923607157443]}}, {"type": "Feature", "properties": {"norad_id": 35284, "name": "COSMOS 2251 DEB", "group": "cosmos-2251-debris", "lat": -73.46096970796533, "lon": 164.94335991037877, "alt_km": 761.4683266024613, "timestamp": "2025-12-26T08:37:54.975609+00:00", "meta": {"OBJECT_NAME": "COSMOS 2251 DEB", "OBJECT_ID": "1993-036AJN", "EPOCH": "2025-12-26T03:03:29.234880", "MEAN_MOTION": 14.38331473, "ECCENTRICITY": 0.0017235, "INCLINATION": 74.0482, "RA_OF_ASC_NODE": 239.7743, "ARG_OF_PERICENTER": 314.3877, "MEAN_ANOMALY": 198.0726, "EPHEMERIS_TYPE": 0, "CLASSIFICATION_TYPE": "U", "NORAD_CAT_ID": 35284, "ELEMENT_SET_NO": 999, "REV_AT_EPOCH": 65718, "BSTAR": 0.00014191, "MEAN_MOTION_DOT": 4.06e-06, "MEAN_MOTION_DDOT": 0}, "tle": {"line1": "1 35284U 93036AJN 25360.12742170  .00000406  00000+0  14191-3 0  9991", "line2": "2 35284  74.0482 239.7743 0017235 314.3877 198.0726 14.38331473657182"}}, "geometry": {"type": "Point", "coordinates": [164.94335991037877, -73.46096970796533]}}, {"type": "Feature", "properties": {"norad_id": 35287, "name": "COSMOS 2251 DEB", "group": "cosmos-2251-debris", "lat": -4.863147191615806, "lon": -110.2857682754702, "alt_km": 760.9713558999201, "timestamp": "2025-12-26T08:37:54.975620+00:00", "meta": {"OBJECT_NAME": "COSMOS 2251 DEB", "OBJECT_ID": "1993-036AJR", "EPOCH": "2025-12-24T03:52:15.182976", "MEAN_MOTION": 14.36385545, "ECCENTRICITY": 0.00180686, "INCLINATION": 74.03, "RA_OF_ASC_NODE": 255.1485, "ARG_OF_PERICENTER": 349.3644, "MEAN_ANOMALY": 162.4382, "EPHEMERIS_TYPE": 0, "CLASSIFICATION_TYPE": "U", "NORAD_CAT_ID": 35287, "ELEMENT_SET_NO": 999, "REV_AT_EPOCH": 87056, "BSTAR": 0.00012586557, "MEAN_MOTION_DOT": 3.43e-06, "MEAN_MOTION_DDOT": 0}, "tle": {"line1": "1 35287U 93036AJR 25358.16128684  .00000343  00000+0  12587-3 0  9990", "line2": "2 35287  74.0300 255.1485 0018068 349.3644 162.4382 14.36385545870563"}}, "geometry": {"type": "Point", "coordinates": [-110.2857682754702, -4.863147191615806]}}, {"type": "Feature", "properties": {"norad_id": 35288, "name": "COSMOS 2251 DEB", "group": "cosmos-2251-debris", "lat": 44.64265781355864, "lon": 152.2970833604298, "alt_km": 669.5252020840126, "timestamp": "2025-12-26T08:37:54.975630+00:00", "meta": {"OBJECT_NAME": "COSMOS 2251 DEB", "OBJECT_ID": "1993-036AJS", "EPOCH": "2025-12-23T06:18:10.717920", "MEAN_MOTION": 14.65565205, "ECCENTRICITY": 0.0039069, "INCLINATION": 73.9499, "RA_OF_ASC_NODE": 354.8064, "ARG_OF_PERICENTER": 226.8245, "MEAN_ANOMALY": 132.9657, "EPHEMERIS_TYPE": 0, "CLASSIFICATION_TYPE": "U", "NORAD_CAT_ID": 35288, "ELEMENT_SET_NO": 999, "REV_AT_EPOCH": 88032, "BSTAR": 0.0011220049, "MEAN_MOTION_DOT": 6.131e-05, "MEAN_MOTION_DDOT": 0}, "tle": {"line1": "1 35288U 93036AJS 25357.26262405  .00006131  00000+0  11220-2 0  9994", "line2": "2 35288  73.9499 354.8064 0039069 226.8245 132.9657 14.65565205880328"}}, "geometry": {"type": "Point", "coordinates": [152.2970833604298, 44.64265781355864]}}, {"type": "Feature", "properties": {"norad_id": 35290, "name": "COSMOS 2251 DEB", "group": "cosmos-2251-debris", "lat": 63.524603991944815, "lon": 67.6982506487724, "alt_km": 620.8041405757576, "timestamp": "2025-12-26T08:37:54.975641+00:00", "meta": {"OBJECT_NAME": "COSMOS 2251 DEB", "OBJECT_ID": "1993-036AJU", "EPOCH": "2025-12-24T09:17:55.218624", "MEAN_MOTION": 14.80672096, "ECCENTRICITY": 0.00012182, "INCLINATION": 74.005, "RA_OF_ASC_NODE": 36.4274, "ARG_OF_PERICENTER": 184.9871, "MEAN_ANOMALY": 175.1294, "EPHEMERIS_TYPE": 0, "CLASSIFICATION_TYPE": "U", "NORAD_CAT_ID": 35290, "ELEMENT_SET_NO": 999, "REV_AT_EPOCH": 88130, "BSTAR": 0.0018442179, "MEAN_MOTION_DOT": 0.00014174, "MEAN_MOTION_DDOT": 0}, "tle": {"line1": "1 35290U 93036AJU 25358.38744466  .00014174  00000+0  18442-2 0  9992", "line2": "2 35290  74.0050  36.4274 0001218 184.9871 175.1294 14.80672096881305"}}, "geometry": {"type": "Point", "coordinates": [67.6982506487724, 63.524603991944815]}}]}